      2.10          N: GNSS NAV DATA                        RINEX VERSION / TYPE
fic2rin                                 05/04/2024 00:59:02 PGM / RUN BY / DATE
                                                            END OF HEADER
8  24  5  3  1 59 44.0  .156990252435D-03  .213731254917D-10  .000000000000D+00
     .380000000000D+02 -.665625000000D+01  .477662753714D-08  .157049104944D+01
    -.342726707458D-06  .946204748470D-02  .745244324207D-05  .515362209320D+04
     .439184000000D+06 -.204890966415D-07  .143997171912D+01  .143423676491D-06
     .953313637019D+00  .232781250000D+03  .358248775574D+00 -.828463080241D-08
    -.461090634847D-09  .100000000000D+01  .231200000000D+04  .000000000000D+00
     .240000000000D+01  .000000000000D+00  .465661287308D-08  .380000000000D+02
     .432000000000D+06  .400000000000D+01
32 24  5  3 22  0  0.0 -.618423335254D-03  .000000000000D+00  .000000000000D+00
     .410000000000D+02 -.818750000000D+02  .477984195675D-08  .240418707433D+00
    -.417046248913D-05  .776532199234D-02  .637024641037D-05  .515366654015D+04
     .511200000000D+06 -.558793544769D-07 -.167875022767D+01  .160187482834D-06
     .961377149309D+00  .258062500000D+03 -.213618360992D+01 -.845285209522D-08
    -.453947480163D-09  .100000000000D+01  .231200000000D+04  .000000000000D+00
     .240000000000D+01  .000000000000D+00  .931322574615D-09  .410000000000D+02
     .504000000000D+06  .400000000000D+01
29 24  5  3 22  0  0.0 -.599744729698D-03  .136424205266D-11  .000000000000D+00
     .280000000000D+02 -.329375000000D+02  .452625996547D-08 -.456432289860D+00
    -.191293656826D-05  .285891233943D-02  .682286918163D-05  .515359695244D+04
     .511200000000D+06  .353902578354D-07  .154873696167D+01  .372529029846D-07
     .971425629308D+00  .251000000000D+03  .251854498687D+01 -.818784105645D-08
    -.322870591713D-09  .100000000000D+01  .231200000000D+04  .000000000000D+00
     .240000000000D+01  .000000000000D+00 -.977888703346D-08  .280000000000D+02
     .504000000000D+06  .400000000000D+01
26 24  5  3 22  0  0.0  .158037059009D-03 -.534328137292D-11  .000000000000D+00
     .320000000000D+02  .709375000000D+02  .541843998549D-08  .136692399890D+01
     .372529029846D-05  .884584651794D-02  .667572021484D-05  .515362803459D+04
     .511200000000D+06 -.447034835815D-07  .346180198812D+00  .335276126862D-07
     .931675089059D+00  .234875000000D+03  .542161520255D+00 -.868607609565D-08
     .299298181256D-09  .100000000000D+01  .231200000000D+04  .000000000000D+00
     .240000000000D+01  .000000000000D+00  .651925802231D-08  .320000000000D+02
     .504000000000D+06  .400000000000D+01
25 24  5  3 22  0  0.0  .495053362101D-03  .682121026330D-12  .000000000000D+00
     .270000000000D+02  .640000000000D+02  .490127558637D-08  .217743215488D+01
     .319443643093D-05  .117550584255D-01  .607222318649D-05  .515357252693D+04
     .511200000000D+06  .335276126862D-07  .408201016011D+00 -.245869159698D-06
     .950886083925D+00  .255875000000D+03  .109013977395D+01 -.828177354054D-08
     .405374028313D-09  .100000000000D+01  .231200000000D+04  .000000000000D+00
     .240000000000D+01  .000000000000D+00  .512227416039D-08  .270000000000D+02
     .504000000000D+06  .400000000000D+01
27 24  5  3 22  0  0.0 -.221724621952D-04 -.193267624127D-11  .000000000000D+00
     .880000000000D+02 -.365937500000D+02  .490270421731D-08 -.413774274537D+00
    -.171363353729D-05  .125676395837D-01  .623054802418D-05  .515367369270D+04
     .511200000000D+06  .782310962677D-07  .146565299438D+01  .150874257088D-06
     .962274345263D+00  .262718750000D+03  .788844458995D+00 -.854642742158D-08
    -.358943522867D-09  .100000000000D+01  .231200000000D+04  .000000000000D+00
     .240000000000D+01  .000000000000D+00  .186264514923D-08  .880000000000D+02
     .504000000000D+06  .400000000000D+01
20 24  5  3 22  0  0.0  .377887859941D-03 -.136424205266D-11  .000000000000D+00
     .670000000000D+02  .567500000000D+02  .493520557112D-08 -.202072146780D+01
     .319257378578D-05  .362810958177D-02  .619329512119D-05  .515377987099D+04
     .511200000000D+06  .124797224998D-06 -.289212614894D+01  .931322574615D-08
     .953735331933D+00  .255500000000D+03 -.259548446709D+01 -.840034990829D-08
     .359657838335D-09  .100000000000D+01  .231200000000D+04  .000000000000D+00
     .240000000000D+01  .000000000000D+00 -.838190317154D-08  .670000000000D+02
     .504000000000D+06  .400000000000D+01
13 24  5  3 22  0  0.0  .647731125355D-03  .295585778076D-11  .000000000000D+00
     .480000000000D+02 -.800312500000D+02  .445089968355D-08 -.762154545607D+00
    -.423751771450D-05  .797232415061D-02  .720843672752D-05  .515365715027D+04
     .511200000000D+06 -.149011611938D-07 -.152765481997D+01  .191852450371D-06
     .970940326716D+00  .243906250000D+03  .924733880706D+00 -.821427072878D-08
    -.461447792581D-09  .100000000000D+01  .231200000000D+04  .000000000000D+00
     .240000000000D+01  .000000000000D+00 -.111758708954D-07  .480000000000D+02
     .504000000000D+06  .400000000000D+01
19 24  5  3 22  0  0.0  .477024354041D-03  .534328137292D-11  .000000000000D+00
     .670000000000D+02 -.434375000000D+02  .458983404215D-08  .153679334006D+01
    -.231340527534D-05  .976947532035D-02  .644661486149D-05  .515370263481D+04
     .511200000000D+06  .102445483208D-06  .157814172771D+01  .651925802231D-07
     .968192245345D+00  .259062500000D+03  .252511042716D+01 -.814391065514D-08
    -.425017703693D-09  .100000000000D+01  .231200000000D+04  .000000000000D+00
     .240000000000D+01  .000000000000D+00 -.153668224812D-07  .670000000000D+02
     .504000000000D+06  .400000000000D+01
14 24  5  3 22  0  0.0  .391913577914D-03  .943600753089D-11  .000000000000D+00
     .540000000000D+02  .700625000000D+02  .505235330794D-08  .221920970418D+01
     .369362533092D-05  .438431254588D-02  .581890344620D-05  .515369822502D+04
     .511200000000D+06 -.137835741043D-06  .450417442197D+00  .819563865662D-07
     .946270164842D+00  .256500000000D+03 -.292698397723D+01 -.845856661897D-08
     .380372986919D-09  .100000000000D+01  .231200000000D+04  .000000000000D+00
     .240000000000D+01  .000000000000D+00 -.791624188423D-08  .540000000000D+02
     .504000000000D+06  .400000000000D+01
17 24  5  3 22  0  0.0  .708874315023D-03 -.227373675443D-11  .000000000000D+00
     .166000000000D+03 -.431562500000D+02  .468198073758D-08 -.469873565080D+00
    -.248104333878D-05  .134060146520D-01  .658817589283D-05  .515371672249D+04
     .511200000000D+06 -.216066837311D-06  .153378204461D+01 -.335276126862D-07
     .969014405305D+00  .260906250000D+03 -.132369570154D+01 -.847106713966D-08
    -.242510101519D-09  .100000000000D+01  .231200000000D+04  .000000000000D+00
     .340000000000D+01  .000000000000D+00 -.111758708954D-07  .166000000000D+03
     .504000000000D+06  .400000000000D+01
28 24  5  3 22  0  0.0 -.228910706937D-03 -.158024704433D-10  .000000000000D+00
     .168000000000D+03 -.112187500000D+02  .427303513192D-08  .149880803283D+01
    -.569969415665D-06  .388483982533D-03  .133551657200D-04  .515364583778D+04
     .511200000000D+06  .521540641785D-07 -.654046344913D+00  .260770320892D-07
     .961491637277D+00  .122656250000D+03  .174332649650D+01 -.789747181854D-08
     .560737642688D-10  .100000000000D+01  .231200000000D+04  .000000000000D+00
     .240000000000D+01  .000000000000D+00 -.931322574615D-08  .424000000000D+03
     .504000000000D+06  .400000000000D+01
18 24  5  3 22  0  0.0 -.604974105954D-03 -.613908923697D-11  .000000000000D+00
     .116000000000D+03  .347187500000D+02  .403016787267D-08 -.246028373308D+01
     .170804560184D-05  .403140927665D-02  .120196491480D-04  .515361918449D+04
     .511200000000D+06 -.465661287308D-07  .253886627365D+01 -.465661287308D-07
     .974663017278D+00  .158468750000D+03 -.305101593735D+01 -.778532429001D-08
     .617882880159D-10  .100000000000D+01  .231200000000D+04  .000000000000D+00
     .240000000000D+01  .000000000000D+00 -.838190317154D-08  .372000000000D+03
     .504000000000D+06  .400000000000D+01
11 24  5  3 22  0  0.0 -.653129536659D-03 -.977706804406D-11  .000000000000D+00
     .148000000000D+03  .126562500000D+02  .427874965567D-08 -.119912593616D+01
     .741332769394D-06  .125472515356D-02  .110901892185D-04  .515370735168D+04
     .511200000000D+06 -.931322574615D-08  .256803872098D+01  .167638063431D-07
     .966364730044D+00  .171031250000D+03 -.255974020261D+01 -.791211528565D-08
     .496449250533D-10  .100000000000D+01  .231200000000D+04  .000000000000D+00
     .240000000000D+01  .000000000000D+00 -.884756445885D-08  .916000000000D+03
     .504000000000D+06  .400000000000D+01
23 24  5  3 22  0  0.0  .216499436647D-03  .954969436862D-11  .000000000000D+00
     .142000000000D+03  .447187500000D+02  .441875548747D-08  .263950618246D+01
     .231899321079D-05  .410510937218D-02  .531226396561D-05  .515371063805D+04
     .511200000000D+06 -.100582838058D-06 -.274418000742D+01 -.447034835815D-07
     .979068201549D+00  .288531250000D+03 -.296242509436D+01 -.815641117584D-08
     .331799535068D-09  .100000000000D+01  .231200000000D+04  .000000000000D+00
     .240000000000D+01  .000000000000D+00 -.838190317154D-08  .654000000000D+03
     .504000000000D+06  .400000000000D+01
17 24  5  3 21 59 44.0  .708876177669D-03 -.227373675443D-11  .000000000000D+00
     .180000000000D+02 -.431562500000D+02  .468198073758D-08 -.472207389013D+00
    -.248104333878D-05  .134060154669D-01  .658817589283D-05  .515371671867D+04
     .511184000000D+06 -.216066837311D-06  .153378216457D+01 -.335276126862D-07
     .969014400916D+00  .260906250000D+03 -.132369558889D+01 -.847106713966D-08
    -.242510101519D-09  .100000000000D+01  .231200000000D+04  .000000000000D+00
     .240000000000D+01  .000000000000D+00 -.111758708954D-07  .180000000000D+02
     .504690000000D+06  .400000000000D+01
